[{"OBJECT_NAME":"KSM1-D","OBJECT_ID":"2020-081C","EPOCH":"2026-03-09T23:16:47.448768","MEAN_MOTION":15.23167768,"ECCENTRICITY":0.00021749,"INCLINATION":36.897,"RA_OF_ASC_NODE":317.8915,"ARG_OF_PERICENTER":144.8142,"MEAN_ANOMALY":215.275,"EPHEMERIS_TYPE":0,"CLASSIFICATION_TYPE":"U","NORAD_CAT_ID":46907,"ELEMENT_SET_NO":999,"REV_AT_EPOCH":29395,"BSTAR":0.00045744664,"MEAN_MOTION_DOT":0.00010982,"MEAN_MOTION_DDOT":0},{"OBJECT_NAME":"SITRO-AIS-64","OBJECT_ID":"2025-313AW","EPOCH":"2026-03-09T22:35:09.372480","MEAN_MOTION":15.230077,"ECCENTRICITY":0.00087165,"INCLINATION":97.4006,"RA_OF_ASC_NODE":145.3433,"ARG_OF_PERICENTER":353.6224,"MEAN_ANOMALY":6.49,"EPHEMERIS_TYPE":0,"CLASSIFICATION_TYPE":"U","NORAD_CAT_ID":67292,"ELEMENT_SET_NO":999,"REV_AT_EPOCH":1086,"BSTAR":0.00054511054,"MEAN_MOTION_DOT":0.00012775,"MEAN_MOTION_DDOT":0}]
